[{"OBJECT_NAME":"HULIANWANG DIGUI-22","OBJECT_ID":"2025-086C","EPOCH":"2026-03-09T22:05:34.537632","MEAN_MOTION":13.24421988,"ECCENTRICITY":0.00018873,"INCLINATION":86.5116,"RA_OF_ASC_NODE":346.4936,"ARG_OF_PERICENTER":91.1437,"MEAN_ANOMALY":268.9913,"EPHEMERIS_TYPE":0,"CLASSIFICATION_TYPE":"U","NORAD_CAT_ID":63689,"ELEMENT_SET_NO":999,"REV_AT_EPOCH":4172,"BSTAR":0.00010521141,"MEAN_MOTION_DOT":6.0e-7,"MEAN_MOTION_DDOT":0},{"OBJECT_NAME":"SL-14 R\/B","OBJECT_ID":"1991-056B","EPOCH":"2026-03-09T20:26:09.161952","MEAN_MOTION":13.20280426,"ECCENTRICITY":0.00238539,"INCLINATION":82.5498,"RA_OF_ASC_NODE":198.5078,"ARG_OF_PERICENTER":321.4136,"MEAN_ANOMALY":154.284,"EPHEMERIS_TYPE":0,"CLASSIFICATION_TYPE":"U","NORAD_CAT_ID":21656,"ELEMENT_SET_NO":999,"REV_AT_EPOCH":66230,"BSTAR":7.8081907e-5,"MEAN_MOTION_DOT":4.4e-7,"MEAN_MOTION_DDOT":0}]
